$$SOE
2460154.500000000, A.D. 2023-Jul-29 00:00:00.0000, 2.222829743909557E+08, 2.555538839234903E+08, -1.343031999033484E+07,
2460161.500000000, A.D. 2023-Aug-05 00:00:00.0000, 2.147464799900627E+08, 2.653439226265580E+08, -1.659109157449482E+07,
2460168.500000000, A.D. 2023-Aug-12 00:00:00.0000, 2.069489573767790E+08, 2.748113759551899E+08, -1.973170035735735E+07,
2460175.500000000, A.D. 2023-Aug-19 00:00:00.0000, 1.989060242189689E+08, 2.839528768852016E+08, -2.284891025659464E+07,
2460182.500000000, A.D. 2023-Aug-26 00:00:00.0000, 1.906329882062028E+08, 2.927658094911156E+08, -2.593968361479405E+07,
2460189.500000000, A.D. 2023-Sep-02 00:00:00.0000, 1.821448187064955E+08, 3.012482568301457E+08, -2.900117566404399E+07,
2460196.500000000, A.D. 2023-Sep-09 00:00:00.0000, 1.734561236943353E+08, 3.093989499483899E+08, -3.203072837454951E+07,
2460203.500000000, A.D. 2023-Sep-16 00:00:00.0000, 1.645811316505455E+08, 3.172172182859699E+08, -3.502586384995887E+07,
2460210.500000000, A.D. 2023-Sep-23 00:00:00.0000, 1.555336783902748E+08, 3.247029420315976E+08, -3.798427741188425E+07,
2460217.500000000, A.D. 2023-Sep-30 00:00:00.0000, 1.463271980360475E+08, 3.318565078151497E+08, -4.090383035868412E+07,
2460224.500000000, A.D. 2023-Oct-07 00:00:00.0000, 1.369747153553189E+08, 3.386787673293114E+08, -4.378254232472047E+07,
2460231.500000000, A.D. 2023-Oct-14 00:00:00.0000, 1.274888400937222E+08, 3.451709956566430E+08, -4.661858368956111E+07,
2460238.500000000, A.D. 2023-Oct-21 00:00:00.0000, 1.178817661580704E+08, 3.513348509582121E+08, -4.941026827567746E+07,
2460245.500000000, A.D. 2023-Oct-28 00:00:00.0000, 1.081652738768029E+08, 3.571723377911435E+08, -5.215604607926215E+07,
2460252.500000000, A.D. 2023-Nov-04 00:00:00.0000, 9.835073375991462E+07, 3.626857732623573E+08, -5.485449602983461E+07,
2460259.500000000, A.D. 2023-Nov-11 00:00:00.0000, 8.844911163507608E+07, 3.678777553801602E+08, -5.750431888315634E+07,
2460266.500000000, A.D. 2023-Nov-18 00:00:00.0000, 7.847097510944059E+07, 3.727511334871718E+08, -6.010433030599916E+07,
2460273.500000000, A.D. 2023-Nov-25 00:00:00.0000, 6.842650119067778E+07, 3.773089807306430E+08, -6.265345418491805E+07,
2460280.500000000, A.D. 2023-Dec-02 00:00:00.0000, 5.832548488355913E+07, 3.815545684781679E+08, -6.515071618337350E+07,
2460287.500000000, A.D. 2023-Dec-09 00:00:00.0000, 4.817734865114351E+07, 3.854913425274093E+08, -6.759523757336527E+07,
2460294.500000000, A.D. 2023-Dec-16 00:00:00.0000, 3.799115285915295E+07, 3.891229010228892E+08, -6.998622937537736E+07,
2460301.500000000, A.D. 2023-Dec-23 00:00:00.0000, 2.777560740146395E+07, 3.924529746657522E+08, -7.232298678685951E+07,
2460308.500000000, A.D. 2023-Dec-30 00:00:00.0000, 1.753908303528605E+07, 3.954854101642809E+08, -7.460488369232950E+07,
2460315.500000000, A.D. 2024-Jan-06 00:00:00.0000, 7.289620539267062E+06, 3.982241544598465E+08, -7.683136728318369E+07,
2460322.500000000, A.D. 2024-Jan-13 00:00:00.0000, -2.965059236219023E+06, 4.006732378210431E+08, -7.900195322166941E+07,
2460329.500000000, A.D. 2024-Jan-20 00:00:00.0000, -1.321754328916618E+07, 4.028367588001866E+08, -8.111622120674899E+07,
2460336.500000000, A.D. 2024-Jan-27 00:00:00.0000, -2.346071445435924E+07, 4.047188716130645E+08, -8.317381069776551E+07,
2460343.500000000, A.D. 2024-Feb-03 00:00:00.0000, -3.368773994806493E+07, 4.063237749025331E+08, -8.517441682672614E+07,
2460350.500000000, A.D. 2024-Feb-10 00:00:00.0000, -4.389206024209699E+07, 4.076557015085707E+08, -8.711778654014061E+07,
2460357.500000000, A.D. 2024-Feb-17 00:00:00.0000, -5.406737817025111E+07, 4.087189091708744E+08, -8.900371497356850E+07,
2460364.500000000, A.D. 2024-Feb-24 00:00:00.0000, -6.420764826525792E+07, 4.095176721011966E+08, -9.083204205149747E+07,
2460371.500000000, A.D. 2024-Mar-02 00:00:00.0000, -7.430706632440229E+07, 4.100562733196543E+08, -9.260264930808021E+07,
2460378.500000000, A.D. 2024-Mar-09 00:00:00.0000, -8.436005908681938E+07, 4.103389976233116E+08, -9.431545693661824E+07,
2460385.500000000, A.D. 2024-Mar-16 00:00:00.0000, -9.436127364419444E+07, 4.103701253200131E+08, -9.597042107800938E+07,
2460392.500000000, A.D. 2024-Mar-23 00:00:00.0000, -1.043055667013371E+08, 4.101539277774144E+08, -9.756753123869853E+07,
2460399.500000000, A.D. 2024-Mar-30 00:00:00.0000, -1.141879959354469E+08, 4.096946647060139E+08, -9.910680762592882E+07,
2460406.500000000, A.D. 2024-Apr-06 00:00:00.0000, -1.240038132012647E+08, 4.089965797547745E+08, -1.005882986885990E+08,
2460413.500000000, A.D. 2024-Apr-13 00:00:00.0000, -1.337484560352153E+08, 4.080638952055822E+08, -1.020120791109030E+08,
2460420.500000000, A.D. 2024-Apr-20 00:00:00.0000, -1.434175384125011E+08, 4.069008084011725E+08, -1.033782479452606E+08,
2460427.500000000, A.D. 2024-Apr-27 00:00:00.0000, -1.530068422711953E+08, 4.055114893053253E+08, -1.046869267834749E+08,
2460434.500000000, A.D. 2024-May-04 00:00:00.0000, -1.625123097112924E+08, 4.039000784535416E+08, -1.059382580232328E+08,
2460441.500000000, A.D. 2024-May-11 00:00:00.0000, -1.719300356256689E+08, 4.020706851573462E+08, -1.071324032521957E+08,
2460448.500000000, A.D. 2024-May-18 00:00:00.0000, -1.812562606752722E+08, 4.000273859520442E+08, -1.082695417480565E+08,
2460455.500000000, A.D. 2024-May-25 00:00:00.0000, -1.904873645772144E+08, 3.977742232518400E+08, -1.093498690904558E+08,
2460462.500000000, A.D. 2024-Jun-01 00:00:00.0000, -1.996198596385743E+08, 3.953152041284095E+08, -1.103735958883512E+08,
2460469.500000000, A.D. 2024-Jun-08 00:00:00.0000, -2.086503842816230E+08, 3.926542991657534E+08, -1.113409466410642E+08,
2460476.500000000, A.D. 2024-Jun-15 00:00:00.0000, -2.175756961527020E+08, 3.897954419143385E+08, -1.122521587192425E+08,
2460483.500000000, A.D. 2024-Jun-22 00:00:00.0000, -2.263926658114845E+08, 3.867425301001385E+08, -1.131074812723196E+08,
2460490.500000000, A.D. 2024-Jun-29 00:00:00.0000, -2.350982731119948E+08, 3.834994267503005E+08, -1.139071740116309E+08,
2460497.500000000, A.D. 2024-Jul-06 00:00:00.0000, -2.436896036185451E+08, 3.800699587454098E+08, -1.146515063069690E+08,
2460504.500000000, A.D. 2024-Jul-13 00:00:00.0000, -2.521638430986581E+08, 3.764579156037078E+08, -1.153407565381193E+08,
2460511.500000000, A.D. 2024-Jul-20 00:00:00.0000, -2.605182720716794E+08, 3.726670496314207E+08, -1.159752114212156E+08,
2460518.500000000, A.D. 2024-Jul-27 00:00:00.0000, -2.687502610612251E+08, 3.687010764670168E+08, -1.165551653245034E+08,
2460525.500000000, A.D. 2024-Aug-03 00:00:00.0000, -2.768572662709272E+08, 3.645636756328881E+08, -1.170809196259229E+08,
2460532.500000000, A.D. 2024-Aug-10 00:00:00.0000, -2.848368255101678E+08, 3.602584910803267E+08, -1.175527821255094E+08,
2460539.500000000, A.D. 2024-Aug-17 00:00:00.0000, -2.926865543144463E+08, 3.557891317412058E+08, -1.179710665128041E+08,
2460546.500000000, A.D. 2024-Aug-24 00:00:00.0000, -3.004041422241780E+08, 3.511591720564361E+08, -1.183360918911478E+08,
2460553.500000000, A.D. 2024-Aug-31 00:00:00.0000, -3.079873490979872E+08, 3.463721524123566E+08, -1.186481823718251E+08,
2460560.500000000, A.D. 2024-Sep-07 00:00:00.0000, -3.154340010870588E+08, 3.414315796043531E+08, -1.189076667585819E+08,
2460567.500000000, A.D. 2024-Sep-14 00:00:00.0000, -3.227419861781216E+08, 3.363409283169552E+08, -1.191148782465021E+08,
2460574.500000000, A.D. 2024-Sep-21 00:00:00.0000, -3.299092513276678E+08, 3.311036440276146E+08, -1.192701539136889E+08,
2460581.500000000, A.D. 2024-Sep-28 00:00:00.0000, -3.369338016679820E+08, 3.257231441024407E+08, -1.193738342231749E+08,
2460588.500000000, A.D. 2024-Oct-05 00:00:00.0000, -3.438136981072931E+08, 3.202028170801950E+08, -1.194262628686572E+08,
2460595.500000000, A.D. 2024-Oct-12 00:00:00.0000, -3.505470536791080E+08, 3.145460231190689E+08, -1.194277866851896E+08,
2460602.500000000, A.D. 2024-Oct-19 00:00:00.0000, -3.571320303871637E+08, 3.087560953323758E+08, -1.193787554854734E+08,
2460609.500000000, A.D. 2024-Oct-26 00:00:00.0000, -3.635668365728245E+08, 3.028363412094617E+08, -1.192795218830592E+08,
2460616.500000000, A.D. 2024-Nov-02 00:00:00.0000, -3.698497245419098E+08, 2.967900439708691E+08, -1.191304411366153E+08,
2460623.500000000, A.D. 2024-Nov-09 00:00:00.0000, -3.759789883491350E+08, 2.906204638760757E+08, -1.189318710209631E+08,
2460630.500000000, A.D. 2024-Nov-16 00:00:00.0000, -3.819529617094206E+08, 2.843308394820950E+08, -1.186841717259353E+08,
2460637.500000000, A.D. 2024-Nov-23 00:00:00.0000, -3.877700159845645E+08, 2.779243888014119E+08, -1.183877057902613E+08,
2460644.500000000, A.D. 2024-Nov-30 00:00:00.0000, -3.934285580326406E+08, 2.714043103152171E+08, -1.180428380919604E+08,
2460651.500000000, A.D. 2024-Dec-07 00:00:00.0000, -3.989270274965753E+08, 2.647737842612427E+08, -1.176499358982887E+08,
2460658.500000000, A.D. 2024-Dec-14 00:00:00.0000, -4.042638942170017E+08, 2.580359754189153E+08, -1.172093688112758E+08,
2460665.500000000, A.D. 2024-Dec-21 00:00:00.0000, -4.094376580850887E+08, 2.511940361505835E+08, -1.167215084974132E+08,
2460672.500000000, A.D. 2024-Dec-28 00:00:00.0000, -4.144468493588739E+08, 2.442511067319669E+08, -1.161867286241169E+08,
2460679.500000000, A.D. 2025-Jan-04 00:00:00.0000, -4.192900268414124E+08, 2.372103153473400E+08, -1.156054050442602E+08,
2460686.500000000, A.D. 2025-Jan-11 00:00:00.0000, -4.239657757412925E+08, 2.300747794081247E+08, -1.149779159247482E+08,
2460693.500000000, A.D. 2025-Jan-18 00:00:00.0000, -4.284727061318269E+08, 2.228476072759052E+08, -1.143046418119795E+08,
2460700.500000000, A.D. 2025-Jan-25 00:00:00.0000, -4.328094517614570E+08, 2.155318999155731E+08, -1.135859656959463E+08,
2460707.500000000, A.D. 2025-Feb-01 00:00:00.0000, -4.369746690224627E+08, 2.081307524490340E+08, -1.128222730912144E+08,
2460714.500000000, A.D. 2025-Feb-08 00:00:00.0000, -4.409670360178792E+08, 2.006472556298186E+08, -1.120139521373564E+08,
2460721.500000000, A.D. 2025-Feb-15 00:00:00.0000, -4.447852516962984E+08, 1.930844972193185E+08, -1.111613937227262E+08,
$$EOE